#dP2021 11 17  0  0  0.00000000      96   u+U IGb14 FIT  LIU
## 2184 259200.00000000   900.00000000 59396 0.0000000000000
+  122   G01G02G03G04G05G06G07G08G09G10G11G12G13G14G15G16G17
+        G18G19G20G21G22G23G24G25G26G27G28G29G30G31G32R01R02
+        R03R04R05R07R08R09R11R12R13R14R15R16R17R18R19R20R21
+        R22R24E01E02E03E04E05E07E08E09E11E12E13E14E15E18E19
+        E21E24E25E26E27E30E31E33E36C02C03C04C05C06C07C08C09
+        C10C11C12C13C14C16C19C20C21C22C23C24C25C26C27C28C29
+        C30C32C33C34C35C36C37C38C39C40C41C42C43C44C45C46J01
+        J02J03J07 00 00 00 00 00 00 00 00 00 00 00 00 00 00
++         0  0  0  0  0  0  0  0  0  0  0  0  0  0  0  0  0
++         0  0  0  0  0  0  0  0  0  0  0  0  0  0  0  0  0
++         0  0  0  0  0  0  0  0  0  0  0  0  0  0  0  0  0
++         0  0  0  0  0  0  0  0  0  0  0  0  0  0  0  0  0
++         0  0  0  0  0  0  0  0  0  0  0  0  0  0  0  0  0
++         0  0  0  0  0  0  0  0  0  0  0  0  0  0  0  0  0
++         0  0  0  0  0  0  0  0  0  0  0  0  0  0  0  0  0
++         0  0  0  0  0  0  0  0  0  0  0  0  0  0  0  0  0
%c M  cc GPS ccc cccc cccc cccc cccc ccccc ccccc ccccc ccccc
%c cc cc ccc ccc cccc cccc cccc cccc ccccc ccccc ccccc ccccc
%f  1.2500000  1.025000000  0.00000000000  0.000000000000000
%f  0.0000000  0.000000000  0.00000000000  0.000000000000000
%i    0    0    0    0      0      0      0      0         0
%i    0    0    0    0      0      0      0      0         0
/* PCV:IGS14_2163 OL/AL:FES2004  NONE     YN CLK:CoN ORB:CoN
/*
/*
*  2021 11 17 15  0  0.00000000
PG01 -13909.562123  21774.469074   5041.614427    508.328358                    
PG02  16218.591940  -3900.614112 -20035.102351   -642.346204                    
PG03 -17013.528614  12655.382249 -16037.234028    -15.881498                    
PG04  -6795.499550  15568.082828 -20399.093945   -201.628537                    
PG05  25893.044492  -5525.521151   2810.517068    -61.393524                    
PG06   9667.148786  12602.211093 -21210.589922    120.141569                    
PG07  -3575.397673  24309.624411   9793.494266    279.318462                    
PG08 -14917.290249   4831.554490  21466.149382    -44.542093                    
PG09   4156.309310  22244.545808 -13955.690070   -361.645991                    
PG10 -13520.470551 -12123.426699  19607.305370   -248.193481                    
PG11  16582.169033   -410.530049 -20748.880965     19.037596                    
PG12  19067.554743 -10826.877158 -15145.085479   -127.663107                    
PG13  17345.024510   3897.175439  19629.774393    215.970348                    
PG14  12801.954977  12990.503864  19326.274878    -39.901781                    
PG15  14466.229786  -7146.112806  20735.222878   -105.815400                    
PG16 -26806.929189    317.970263    212.653467   -425.714174                    
PG17  12709.531806  23234.242762   2282.732870    534.951036                    
PG18   3580.023915 -24069.424443  10516.672356    294.170047                    
PG19  16692.854113  19516.215128  -7377.209280     80.477099                    
PG20  25101.440179   -121.661138  -8282.978966    518.071088                    
PG21 -16344.493459  15487.231246  14298.430039    151.217244                    
PG22 -22557.892506  10881.206324  -8351.042980   -462.639470                    
PG23   -547.424047 -15115.072169  21809.283338     31.920722                    
PG24  14674.289520 -19603.854603   9476.690080    267.937342                    
PG25   7826.115211 -15241.526574 -20492.388608    242.038823                    
PG26 -22623.448143  -6141.771277 -12827.252302    156.259260                    
PG27 -19036.320810  -6276.713848  17432.502269   -220.323730                    
PG28  18957.775690  10650.068041  15644.139812    460.982091                    
PG29    667.080149 -20540.119958 -16827.687717   -441.873177                    
PG30   4711.539892  19546.793405  17302.547510   -492.111336                    
PG31 -11856.882393 -10305.779122 -21473.352889   -150.594700                    
PG32 -16455.363903 -20916.495210  -1488.616351    -23.173955                    
PR01 -15425.595434  19693.232342   5022.114637     88.247471                    
PR02 -15425.595287  19693.232080   5022.116077    500.382726                    
PR03 -15425.595449  19693.232368   5022.114492     46.615360                    
PR04 -15425.595425  19693.232325   5022.114729    114.676284                    
PR05 -15425.595436  19693.232345   5022.114618     82.633329                    
PR06 -15425.595471  19693.232408   5022.114272    -16.269947                    
PR07 -15425.595480  19693.232423   5022.114190    -39.894134                    
PR08 -15425.595488  19693.232437   5022.114112    -62.043779                    
PR09 -15425.595457  19693.232382   5022.114413     24.080950                    
PR10 -15425.595493  19693.232447   5022.114059    -77.151693                    
PR11 -15425.595448  19693.232366   5022.114502     49.522405                    
PR12 -15425.595366  19693.232220   5022.115304    279.184846                    
PR13 -15425.595488  19693.232438   5022.114106    -63.695014                    
PR14 -15425.595440  19693.232353   5022.114577     71.107410                    
PR15 -15425.595430  19693.232334   5022.114678    100.145246                    
PR16 -15425.595475  19693.232414   5022.114241    -25.152229                    
PR17 -15425.595296  19693.232096   5022.115990    475.749917                    
PR18 -15425.595431  19693.232336   5022.114669     97.491649                    
PR19 -15425.595525  19693.232504   5022.113744   -167.338048                    
PR20 -15425.595487  19693.232436   5022.114120    -59.502199                    
PR21 -15425.595557  19693.232560   5022.113437   -255.291894                    
PR22 -15425.595517  19693.232490   5022.113820   -145.759977                    
PR23 -15425.595473  19693.232411   5022.114258    -20.309222                    
PR24 -15425.595442  19693.232355   5022.114564     67.364295                    
PE01   6804.542714 -17606.751584 -22791.163530   -519.055511                    
PE02  -6662.005377  17611.079153  22848.775812    260.917942                    
PE03   3990.929710  22785.515561 -18483.450282   -496.944583                    
PE04 -19423.461419 -22216.432779   2325.472287   -901.605442                    
PE05 -14069.377256   9967.943092 -24065.654172   -233.258138                    
PE07  23705.940010   8494.573261  15560.039619   -608.037761                    
PE08  19740.791191  21975.932208  -1964.816596   5903.528173                    
PE09 -23633.499809  -8255.552083 -15791.674239   5460.469667                    
PE11 -16659.234966    538.998630  24456.513669   5065.933157                    
PE12  -7780.674251 -20539.794218  19849.922701   4905.376285                    
PE13  16460.952036     55.630763 -24593.077061    423.791179                    
PE14  18953.504382  23220.328254  -4540.712393  -1643.150460                    
PE15   7727.346656  20565.017381 -19831.337700    780.432478                    
PE18  -8648.236164 -24331.492954  -6229.685034  -1806.919196                    
PE19  -1731.605900 -21771.813162  19977.936126    429.890568                    
PE21  24082.081404 -13542.342976 -10607.617270   -700.090286                    
PE24 -28119.152311    519.363261  -9282.967232  -1231.309876                    
PE25 -24235.640295  13447.507919  10415.798452   -553.868274                    
PE27  28372.085256  -1425.015497   8301.933185   -166.949405                    
PE30  14727.711877  12163.686891  22604.660512    -37.594440                    
PE31 -15961.343406 -11411.018392 -22152.979755   -488.186383                    
PE33   5516.640226 -28879.489011   3419.410419   -462.447333                    
PE36 -15478.566143  20383.779166  14877.759379   -291.407512                    
PC01 -34302.559124  24557.888648     66.609104   -438.082018                    
PC02   4386.525972  41880.225337  -1039.261664    151.511616                    
PC03 -14776.859880  39459.259377   -586.105776    189.464005                    
PC04 -39635.187080  14429.156236    364.898620    181.280635                    
PC05  21840.001374  36023.481250  -1374.608399    304.807361                    
PC06  -3216.705431  38429.581184 -16859.908761    501.113876                    
PC07  -9977.857862  25180.615458  32315.086705    227.102123                    
PC08 -18708.408294  33504.788332 -17642.927849   -761.871730                    
PC09   1171.161635  40754.228157  -9426.714503   -274.498106                    
PC10      2.986066  27097.415631  32600.472989     12.751092                    
PC11  -2496.056218  25450.572818  11294.004063    696.055534                    
PC12 -12693.979577  11010.960990  22326.672579    723.143426                    
PC13 -13163.715668  33826.537308 -21581.866209    478.063589                    
PC14  -4690.924695  15189.241377 -22921.245889    531.830180                    
PC16  -6084.389630  35843.414131 -21025.801642   -718.921876                    
PC19  -6481.743670 -17151.483721  21049.692202    934.157387                    
PC20  13314.196331 -11542.198760  21649.255921   -790.695672                    
PC21 -26269.667668  -1361.773558  -9288.001219   -937.404264                    
PC22 -23248.120797 -13058.585707   8189.107524   -969.892480                    
PC23  13557.758177   9441.506809  22494.786845   -965.038583                    
PC24 -19347.769722  19997.547758   2336.798159   -960.352218                    
PC25  -2863.111364  20896.476256  18279.388681   -823.348204                    
PC26 -22902.804479   8829.934445 -13320.881034    820.483136                    
PC27  16001.935437   -684.258029 -22866.242429    630.946429                    
PC28  14312.066453  19001.851467 -14590.650360     -1.613226                    
PC29  -5229.116225 -27314.781140  -2293.813505    475.545145                    
PC30   7984.577966 -19698.774575 -18091.765668    486.474685                    
PC32  26310.744958   1199.209546   9233.439476   -961.363135                    
PC33   6489.727710  17133.304021 -21055.267556   -971.501457                    
PC34  -7509.332450  20366.093744  17521.988402   -534.843951                    
PC35 -14857.716612 -18907.795754  14182.062281      4.974853                    
PC36   3767.414924 -20953.311654 -18012.204636   -806.353030                    
PC37  22905.386462  -7353.929329  14137.647784   -892.929537                    
PC38 -24015.427840  33691.272782  -8582.241080    190.168969                    
PC39  -8012.720643  32577.397748 -25459.516529     34.059858                    
PC40 -15488.401528  18322.918078  34654.282696    218.560408                    
PC41  23084.197924  13146.512814  -8490.041197   -916.028243                    
PC42 -14183.934554  11104.351436 -21275.328964   -942.641696                    
PC43   4696.325022  27347.913038   2867.600951   -960.153096                    
PC44 -16144.272392    978.831283  22737.635332    468.846299                    
PC45 -13673.585309  -9133.591619 -22545.324707    603.224157                    
PC46  18594.100415 -20469.815959  -3560.071404    -13.341419                    
PJ01 -26942.031783  14423.850931 -24492.961157    132.228228                    
PJ02 -30100.435700  27024.955875  16743.924490      0.062797                    
PJ03 -26514.964608  25716.566069  25408.136309     -6.641785                    
PJ07 -25411.609884  33656.716621    -32.949585      1.355309                    
